OBJECT_NAME,OBJECT_ID,EPOCH,MEAN_MOTION,ECCENTRICITY,INCLINATION,RA_OF_ASC_NODE,ARG_OF_PERICENTER,MEAN_ANOMALY,EPHEMERIS_TYPE,CLASSIFICATION_TYPE,NORAD_CAT_ID,ELEMENT_SET_NO,REV_AT_EPOCH,BSTAR,MEAN_MOTION_DOT,MEAN_MOTION_DDOT
SKYSAT-C1,2016-040C,2026-07-21T12:51:30.770784,15.36817511,.00007835,96.9555,232.4028,192.6003,167.5223,0,U,41601,999,56314,.21885032E-3,.78E-4,0
LAPAN-A3,2016-040E,2026-07-21T15:37:28.675776,15.33304354,.00083524,97.1510,197.6722,247.3178,112.7182,0,U,41603,999,56009,.85448274E-4,.2677E-4,0
GAOFEN-3,2016-049A,2026-07-21T15:13:13.558944,14.42218830,.00017913,98.4025,209.9013,83.0628,277.0765,0,U,41727,999,52361,.207845E-5,-.37E-6,0
SKYSAT-C4,2016-058B,2026-07-21T12:04:46.089408,15.49577048,.000352,96.9176,222.8604,109.3664,250.7969,0,U,41771,999,55078,.28673506E-3,.15758E-3,0
SKYSAT-C5,2016-058C,2026-07-21T12:57:19.074240,15.33775391,.00032403,97.0452,241.6323,145.5596,214.5858,0,U,41772,999,54901,.19088358E-3,.6161E-4,0
SKYSAT-C2,2016-058D,2026-07-21T07:38:43.405152,15.42770110,.00007171,97.0165,223.1434,302.7636,57.3543,0,U,41773,999,55031,.21259391E-3,.9217E-4,0
SKYSAT-C3,2016-058E,2026-07-21T00:43:44.509728,15.53879483,.00027793,96.9000,231.6037,125.8983,234.2530,0,U,41774,999,55136,.26757403E-3,.17145E-3,0
ALSAT-1B,2016-059C,2026-07-21T13:28:25.538880,14.72296712,.00106924,97.7763,209.8428,111.9793,248.2553,0,U,41785,999,52563,.15133701E-4,.49E-6,0
PATHFINDER 1,2016-059E,2026-07-21T10:17:49.928640,14.67698159,.00299672,97.8180,200.1622,96.8090,263.6527,0,U,41787,999,52473,.84255385E-4,.436E-5,0
SCATSAT 1,2016-059H,2026-07-21T03:54:37.354176,14.79597322,.00555974,98.1172,266.2770,137.6688,222.8834,0,U,41790,999,10661,.12581297E-3,.911E-5,0
GOKTURK 1A,2016-073A,2026-07-21T15:39:50.942880,14.62795277,.0001439,98.1200,96.7791,82.1822,277.9544,0,U,41875,999,51386,.15304877E-4,.32E-6,0
RESOURCESAT-2A,2016-074A,2026-07-21T15:05:08.094624,14.21609971,.00020179,98.7509,275.8493,13.3163,346.8067,0,U,41877,999,49919,.10438833E-3,.185E-5,0
CARTOSAT-2D,2017-008A,2026-07-21T14:31:12.425952,15.19316840,.00065346,97.4085,261.2645,121.0796,239.1081,0,U,41948,999,52280,.22604632E-3,.4708E-4,0
SENTINEL-2B,2017-013A,2026-07-21T14:42:52.720416,14.30817334,.00012446,98.5676,276.8998,93.7665,266.3660,0,U,42063,999,48956,.14647793E-3,.34E-5,0
CARTOSAT-2E,2017-036C,2026-07-21T14:56:58.254144,15.19287892,.00040376,97.4254,261.8542,166.1097,194.0249,0,U,42767,999,50337,.23480341E-3,.4887E-4,0
FORMOSAT-5,2017-049A,2026-07-21T12:49:32.544480,14.50893146,.00109755,98.2243,277.0793,343.8386,16.2457,0,U,42920,999,47165,.23434237E-4,.49E-6,0
SENTINEL-5P,2017-064A,2026-07-21T05:55:02.339040,14.19523981,.00011925,98.7929,144.1371,92.3814,267.7498,0,U,42969,999,45439,.33682948E-4,.27E-6,0
SKYSAT-C11,2017-068A,2026-07-21T03:29:09.163680,15.59545665,.00014875,97.4387,352.5062,151.5887,208.5451,0,U,42987,999,48853,.29602854E-3,.23423E-3,0
SKYSAT-C10,2017-068B,2026-07-21T07:44:19.953024,15.35195077,.00015449,97.4542,339.5238,110.0496,250.0914,0,U,42988,999,48759,.24282282E-3,.8215E-4,0
SKYSAT-C9,2017-068C,2026-07-21T15:11:25.705824,15.42318183,.00080864,97.4464,341.1075,23.0912,337.0697,0,U,42989,999,48806,.27821609E-3,.11914E-3,0
SKYSAT-C8,2017-068D,2026-07-21T08:54:53.930592,15.37570842,.00013118,97.4560,339.5052,106.9066,253.2323,0,U,42990,999,48756,.24920034E-3,.9104E-4,0
SKYSAT-C7,2017-068E,2026-07-21T15:02:06.633024,15.37524312,.00051066,97.4571,340.7560,358.4600,1.6628,0,U,42991,999,48766,.25555256E-3,.9328E-4,0
SKYSAT-C6,2017-068F,2026-07-21T07:46:29.333568,15.34235666,.00049096,97.4610,340.2748,73.5250,286.6532,0,U,42992,999,48755,.20971918E-3,.6871E-4,0
CARTOSAT-2F,2018-004A,2026-07-21T14:09:27.752256,15.19203980,.00027611,97.4764,261.8847,124.0059,236.1438,0,U,43111,999,47255,.22280044E-3,.4621E-4,0
GAOFEN-1 02,2018-031A,2026-07-21T15:47:53.166336,14.76476369,.0001547,98.0504,265.0858,243.6036,116.5015,0,U,43259,999,44778,.51637882E-4,.308E-5,0
GAOFEN-1 03,2018-031B,2026-07-21T15:16:24.261024,14.76468284,.00018927,98.0499,264.9183,355.3733,4.7459,0,U,43260,999,44777,.73809498E-4,.462E-5,0
GAOFEN-1 04,2018-031D,2026-07-21T14:41:30.678432,14.76444814,.00008693,98.0505,265.0893,56.5851,303.5442,0,U,43262,999,44776,.14045967E-3,.926E-5,0
SENTINEL-3B,2018-039A,2026-07-21T14:57:47.455488,14.26737647,.0001288,98.6231,269.6585,118.3854,241.7456,0,U,43437,999,42903,.42646252E-4,.6E-6,0
GAOFEN-5 01,2018-043A,2026-07-21T04:14:54.333600,14.60625994,.00017409,98.4596,174.4822,18.9879,341.1386,0,U,43461,999,43665,.53649674E-4,.212E-5,0
GAOFEN-6,2018-048A,2026-07-21T15:14:22.653888,14.76388945,.00119871,98.0949,265.3519,63.7078,296.5362,0,U,43484,999,43847,.79429754E-4,.5E-5,0
