{"epoch":1784710044,"count":18256,"objects":[{"id":"41601","name":"SKYSAT C1","type":"PAYLOAD","l1":"1 41601U 16040C   26202.53577281  .00007800  00000-0  21885-3 0  9995","l2":"2 41601  96.9555 232.4028 0000783 192.6003 167.5223 15.36817511563146"},{"id":"41603","name":"LAPAN A3","type":"PAYLOAD","l1":"1 41603U 16040E   26202.65102634  .00002677  00000-0  85448-4 0  9999","l2":"2 41603  97.1510 197.6722 0008352 247.3178 112.7182 15.33304354560096"},{"id":"41727","name":"GAOFEN 3","type":"PAYLOAD","l1":"1 41727U 16049A   26202.63418471 -.00000037  00000-0  20785-5 0  9995","l2":"2 41727  98.4025 209.9013 0001791  83.0628 277.0765 14.42218830523614"},{"id":"41771","name":"SKYSAT C4","type":"PAYLOAD","l1":"1 41771U 16058B   26202.50331122  .00015758  00000-0  28674-3 0  9995","l2":"2 41771  96.9176 222.8604 0003520 109.3664 250.7969 15.49577048550786"},{"id":"41772","name":"SKYSAT C5","type":"PAYLOAD","l1":"1 41772U 16058C   26202.53980410  .00006161  00000-0  19088-3 0  9996","l2":"2 41772  97.0452 241.6323 0003240 145.5596 214.5858 15.33775391549011"},{"id":"41773","name":"SKYSAT C2","type":"PAYLOAD","l1":"1 41773U 16058D   26202.31855793  .00009217  00000-0  21259-3 0  9996","l2":"2 41773  97.0165 223.1434 0000717 302.7636  57.3543 15.42770110550312"},{"id":"41774","name":"SKYSAT C3","type":"PAYLOAD","l1":"1 41774U 16058E   26202.03037627  .00017145  00000-0  26757-3 0  9991","l2":"2 41774  96.9000 231.6037 0002779 125.8983 234.2530 15.53879483551364"},{"id":"41785","name":"ALSAT 1B","type":"PAYLOAD","l1":"1 41785U 16059C   26202.56140670  .00000049  00000-0  15134-4 0  9998","l2":"2 41785  97.7763 209.8428 0010692 111.9793 248.2553 14.72296712525639"},{"id":"41787","name":"PATHFINDER 1","type":"PAYLOAD","l1":"1 41787U 16059E   26202.42905010  .00000436  00000-0  84255-4 0  9992","l2":"2 41787  97.8180 200.1622 0029967  96.8090 263.6527 14.67698159524738"},{"id":"41790","name":"SCATSAT 1","type":"PAYLOAD","l1":"1 41790U 16059H   26202.16293234  .00000911  00000-0  12581-3 0  9995","l2":"2 41790  98.1172 266.2770 0055597 137.6688 222.8834 14.79597322106613"},{"id":"41875","name":"GOKTURK-1A","type":"PAYLOAD","l1":"1 41875U 16073A   26202.65267295  .00000032  00000-0  15305-4 0  9999","l2":"2 41875  98.1200  96.7791 0001439  82.1822 277.9544 14.62795277513867"},{"id":"41877","name":"RESOURCESAT 2A","type":"PAYLOAD","l1":"1 41877U 16074A   26202.62856591  .00000185  00000-0  10439-3 0  9993","l2":"2 41877  98.7509 275.8493 0002018  13.3163 346.8067 14.21609971499199"},{"id":"41948","name":"CARTOSAT 2D","type":"PAYLOAD","l1":"1 41948U 17008A   26202.60500493  .00004708  00000-0  22605-3 0  9998","l2":"2 41948  97.4085 261.2645 0006535 121.0796 239.1081 15.19316840522801"},{"id":"42063","name":"SENTINEL 2B","type":"PAYLOAD","l1":"1 42063U 17013A   26202.61311019  .00000340  00000-0  14648-3 0  9994","l2":"2 42063  98.5676 276.8998 0001245  93.7665 266.3660 14.30817334489560"},{"id":"42767","name":"CARTOSAT 2E","type":"PAYLOAD","l1":"1 42767U 17036C   26202.62289646  .00004887  00000-0  23480-3 0  9995","l2":"2 42767  97.4254 261.8542 0004038 166.1097 194.0249 15.19287892503371"},{"id":"42920","name":"FORMOSAT-5","type":"PAYLOAD","l1":"1 42920U 17049A   26202.53440445  .00000049  00000-0  23434-4 0  9992","l2":"2 42920  98.2243 277.0793 0010975 343.8386  16.2457 14.50893146471658"},{"id":"42969","name":"SENTINEL 5P","type":"PAYLOAD","l1":"1 42969U 17064A   26202.24655485  .00000027  00000-0  33683-4 0  9995","l2":"2 42969  98.7929 144.1371 0001192  92.3814 267.7498 14.19523981454398"},{"id":"42987","name":"SKYSAT C11","type":"PAYLOAD","l1":"1 42987U 17068A   26202.14524495  .00023423  00000-0  29603-3 0  9995","l2":"2 42987  97.4387 352.5062 0001488 151.5887 208.5451 15.59545665488533"},{"id":"42988","name":"SKYSAT C10","type":"PAYLOAD","l1":"1 42988U 17068B   26202.32245316  .00008215  00000-0  24282-3 0  9998","l2":"2 42988  97.4542 339.5238 0001545 110.0496 250.0914 15.35195077487590"},{"id":"42989","name":"SKYSAT C9","type":"PAYLOAD","l1":"1 42989U 17068C   26202.63293641  .00011914  00000-0  27822-3 0  9990","l2":"2 42989  97.4464 341.1075 0008086  23.0912 337.0697 15.42318183488065"},{"id":"42990","name":"SKYSAT C8","type":"PAYLOAD","l1":"1 42990U 17068D   26202.37145753  .00009104  00000-0  24920-3 0  9997","l2":"2 42990  97.4560 339.5052 0001312 106.9066 253.2323 15.37570842487561"},{"id":"42991","name":"SKYSAT C7","type":"PAYLOAD","l1":"1 42991U 17068E   26202.62646566  .00009328  00000-0  25555-3 0  9997","l2":"2 42991  97.4571 340.7560 0005107 358.4600   1.6628 15.37524312487661"},{"id":"42992","name":"SKYSAT C6","type":"PAYLOAD","l1":"1 42992U 17068F   26202.32395062  .00006871  00000-0  20972-3 0  9995","l2":"2 42992  97.4610 340.2748 0004910  73.5250 286.6532 15.34235666487551"},{"id":"43111","name":"CARTOSAT 2F","type":"PAYLOAD","l1":"1 43111U 18004A   26202.58990454  .00004621  00000-0  22280-3 0  9999","l2":"2 43111  97.4764 261.8847 0002761 124.0059 236.1438 15.19203980472550"},{"id":"43259","name":"GAOFEN 1-02","type":"PAYLOAD","l1":"1 43259U 18031A   26202.65825424  .00000308  00000-0  51638-4 0  9992","l2":"2 43259  98.0504 265.0858 0001547 243.6036 116.5015 14.76476369447788"},{"id":"43260","name":"GAOFEN 1-03","type":"PAYLOAD","l1":"1 43260U 18031B   26202.63639191  .00000462  00000-0  73809-4 0  9991","l2":"2 43260  98.0499 264.9183 0001893 355.3733   4.7459 14.76468284447777"},{"id":"43262","name":"GAOFEN 1-04","type":"PAYLOAD","l1":"1 43262U 18031D   26202.61216063  .00000926  00000-0  14046-3 0  9992","l2":"2 43262  98.0505 265.0893 0000869  56.5851 303.5442 14.76444814447764"},{"id":"43437","name":"SENTINEL 3B","type":"PAYLOAD","l1":"1 43437U 18039A   26202.62346592  .00000060  00000-0  42646-4 0  9993","l2":"2 43437  98.6231 269.6585 0001288 118.3854 241.7456 14.26737647429036"},{"id":"43461","name":"GAOFEN-5","type":"PAYLOAD","l1":"1 43461U 18043A   26202.17701775  .00000212  00000-0  53650-4 0  9999","l2":"2 43461  98.4596 174.4822 0001741  18.9879 341.1386 14.60625994436650"},{"id":"43484","name":"GAOFEN 6","type":"PAYLOAD","l1":"1 43484U 18048A   26202.63498442  .00000500  00000-0  79430-4 0  9998","l2":"2 43484  98.0949 265.3519 0011987  63.7078 296.5362 14.76388945438476"}]}